{
  "type": "FeatureCollection",
  "features": [
    {
      "type": "Feature",
      "properties": {
        "norad_id": 29850,
        "name": "FENGYUN 1C DEB",
        "group": "fengyun-1c-debris",
        "lat": -56.76489755099934,
        "lon": -76.65283675414607,
        "alt_km": 826.8960702473933,
        "timestamp": "2025-12-09T18:55:17.503642+00:00",
        "meta_object_name": "FENGYUN 1C DEB",
        "meta_object_id": "1999-025EU",
        "meta_epoch": "2025-12-09T09:30:25.486848",
        "meta_mean_motion": 13.99839562,
        "meta_eccentricity": 0.01027072,
        "meta_inclination": 98.1228,
        "meta_ra_of_asc_node": 270.4098,
        "meta_arg_of_pericenter": 299.1691,
        "meta_mean_anomaly": 187.4493,
        "meta_ephemeris_type": 0,
        "meta_classification_type": "U",
        "meta_norad_cat_id": 29850,
        "meta_element_set_no": 999,
        "meta_rev_at_epoch": 95973,
        "meta_bstar": 0.0022177186,
        "meta_mean_motion_dot": 3.367e-05,
        "meta_mean_motion_ddot": 0,
        "tle_line1": "1 29850U 99025EU  25343.39612832  .00003367  00000+0  22177-2 0  9999",
        "tle_line2": "2 29850  98.1228 270.4098 0102707 299.1691 187.4493 13.99839562959734"
      },
      "geometry": {
        "type": "Point",
        "coordinates": [
          -76.65283675414607,
          -56.76489755099934
        ]
      }
    },
    {
      "type": "Feature",
      "properties": {
        "norad_id": 29851,
        "name": "FENGYUN 1C DEB",
        "group": "fengyun-1c-debris",
        "lat": 60.06395630843375,
        "lon": 7.5933077933736906,
        "alt_km": 1048.720867556386,
        "timestamp": "2025-12-09T18:55:17.503653+00:00",
        "meta_object_name": "FENGYUN 1C DEB",
        "meta_object_id": "1999-025EV",
        "meta_epoch": "2025-12-09T08:31:01.055712",
        "meta_mean_motion": 13.83595144,
        "meta_eccentricity": 0.01419979,
        "meta_inclination": 99.5847,
        "meta_ra_of_asc_node": 24.2141,
        "meta_arg_of_pericenter": 236.4716,
        "meta_mean_anomaly": 187.0494,
        "meta_ephemeris_type": 0,
        "meta_classification_type": "U",
        "meta_norad_cat_id": 29851,
        "meta_element_set_no": 999,
        "meta_rev_at_epoch": 95320,
        "meta_bstar": 0.00055060012,
        "meta_mean_motion_dot": 6.1e-06,
        "meta_mean_motion_ddot": 0,
        "tle_line1": "1 29851U 99025EV  25343.35487333  .00000610  00000+0  55060-3 0  9998",
        "tle_line2": "2 29851  99.5847  24.2141 0141997 236.4716 187.0494 13.83595144953208"
      },
      "geometry": {
        "type": "Point",
        "coordinates": [
          7.5933077933736906,
          60.06395630843375
        ]
      }
    },
    {
      "type": "Feature",
      "properties": {
        "norad_id": 29852,
        "name": "FENGYUN 1C DEB",
        "group": "fengyun-1c-debris",
        "lat": 4.262758582165082,
        "lon": -7.237950346781643,
        "alt_km": 959.3477942371474,
        "timestamp": "2025-12-09T18:55:17.503663+00:00",
        "meta_object_name": "FENGYUN 1C DEB",
        "meta_object_id": "1999-025EW",
        "meta_epoch": "2025-12-09T12:47:23.615808",
        "meta_mean_motion": 14.0704175,
        "meta_eccentricity": 0.01351661,
        "meta_inclination": 99.3715,
        "meta_ra_of_asc_node": 353.2026,
        "meta_arg_of_pericenter": 158.7944,
        "meta_mean_anomaly": 352.9196,
        "meta_ephemeris_type": 0,
        "meta_classification_type": "U",
        "meta_norad_cat_id": 29852,
        "meta_element_set_no": 999,
        "meta_rev_at_epoch": 95939,
        "meta_bstar": 0.0022016427,
        "meta_mean_motion_dot": 3.952e-05,
        "meta_mean_motion_ddot": 0,
        "tle_line1": "1 29852U 99025EW  25343.53291222  .00003952  00000+0  22016-2 0  9995",
        "tle_line2": "2 29852  99.3715 353.2026 0135166 158.7944 352.9196 14.07041750959392"
      },
      "geometry": {
        "type": "Point",
        "coordinates": [
          -7.237950346781643,
          4.262758582165082
        ]
      }
    },
    {
      "type": "Feature",
      "properties": {
        "norad_id": 29853,
        "name": "FENGYUN 1C DEB",
        "group": "fengyun-1c-debris",
        "lat": -57.35977350639308,
        "lon": 119.07578853897319,
        "alt_km": 882.3836495525647,
        "timestamp": "2025-12-09T18:55:17.503673+00:00",
        "meta_object_name": "FENGYUN 1C DEB",
        "meta_object_id": "1999-025EX",
        "meta_epoch": "2025-12-09T07:08:31.572096",
        "meta_mean_motion": 13.93775136,
        "meta_eccentricity": 0.0161379,
        "meta_inclination": 98.4581,
        "meta_ra_of_asc_node": 105.1935,
        "meta_arg_of_pericenter": 232.1087,
        "meta_mean_anomaly": 126.539,
        "meta_ephemeris_type": 0,
        "meta_classification_type": "U",
        "meta_norad_cat_id": 29853,
        "meta_element_set_no": 999,
        "meta_rev_at_epoch": 95621,
        "meta_bstar": 0.0022694,
        "meta_mean_motion_dot": 3.29e-05,
        "meta_mean_motion_ddot": 0,
        "tle_line1": "1 29853U 99025EX  25343.29758764  .00003290  00000+0  22694-2 0  9995",
        "tle_line2": "2 29853  98.4581 105.1935 0161379 232.1087 126.5390 13.93775136956212"
      },
      "geometry": {
        "type": "Point",
        "coordinates": [
          119.07578853897319,
          -57.35977350639308
        ]
      }
    },
    {
      "type": "Feature",
      "properties": {
        "norad_id": 29854,
        "name": "FENGYUN 1C DEB",
        "group": "fengyun-1c-debris",
        "lat": -58.32070234703793,
        "lon": 159.8282933875734,
        "alt_km": 1008.9041747625615,
        "timestamp": "2025-12-09T18:55:17.503683+00:00",
        "meta_object_name": "FENGYUN 1C DEB",
        "meta_object_id": "1999-025EY",
        "meta_epoch": "2025-12-09T10:48:38.269152",
        "meta_mean_motion": 13.83338438,
        "meta_eccentricity": 0.01474127,
        "meta_inclination": 98.9272,
        "meta_ra_of_asc_node": 144.7517,
        "meta_arg_of_pericenter": 59.6671,
        "meta_mean_anomaly": 0.3062,
        "meta_ephemeris_type": 0,
        "meta_classification_type": "U",
        "meta_norad_cat_id": 29854,
        "meta_element_set_no": 999,
        "meta_rev_at_epoch": 95298,
        "meta_bstar": 0.0003934956,
        "meta_mean_motion_dot": 4.3e-06,
        "meta_mean_motion_ddot": 0,
        "tle_line1": "1 29854U 99025EY  25343.45044293  .00000430  00000+0  39350-3 0  9990",
        "tle_line2": "2 29854  98.9272 144.7517 0147412  59.6671   0.3062 13.83338438952987"
      },
      "geometry": {
        "type": "Point",
        "coordinates": [
          159.8282933875734,
          -58.32070234703793
        ]
      }
    },
    {
      "type": "Feature",
      "properties": {
        "norad_id": 29855,
        "name": "FENGYUN 1C DEB",
        "group": "fengyun-1c-debris",
        "lat": -81.58094669072523,
        "lon": 2.1833292223847676,
        "alt_km": 1001.0218662637244,
        "timestamp": "2025-12-09T18:55:17.503694+00:00",
        "meta_object_name": "FENGYUN 1C DEB",
        "meta_object_id": "1999-025EZ",
        "meta_epoch": "2025-12-09T09:36:05.222880",
        "meta_mean_motion": 14.01541532,
        "meta_eccentricity": 0.01841053,
        "meta_inclination": 98.1809,
        "meta_ra_of_asc_node": 285.443,
        "meta_arg_of_pericenter": 55.5786,
        "meta_mean_anomaly": 59.426,
        "meta_ephemeris_type": 0,
        "meta_classification_type": "U",
        "meta_norad_cat_id": 29855,
        "meta_element_set_no": 999,
        "meta_rev_at_epoch": 95665,
        "meta_bstar": 0.0033056348,
        "meta_mean_motion_dot": 5.764e-05,
        "meta_mean_motion_ddot": 0,
        "tle_line1": "1 29855U 99025EZ  25343.40006045  .00005764  00000+0  33056-2 0  9990",
        "tle_line2": "2 29855  98.1809 285.4430 0184105  55.5786  59.4260 14.01541532956650"
      },
      "geometry": {
        "type": "Point",
        "coordinates": [
          2.1833292223847676,
          -81.58094669072523
        ]
      }
    },
    {
      "type": "Feature",
      "properties": {
        "norad_id": 29856,
        "name": "FENGYUN 1C DEB",
        "group": "fengyun-1c-debris",
        "lat": 47.94904109185349,
        "lon": 67.90281453945894,
        "alt_km": 763.1295451406777,
        "timestamp": "2025-12-09T18:55:17.503704+00:00",
        "meta_object_name": "FENGYUN 1C DEB",
        "meta_object_id": "1999-025FA",
        "meta_epoch": "2025-12-09T05:40:48.670752",
        "meta_mean_motion": 14.47603082,
        "meta_eccentricity": 0.0262961,
        "meta_inclination": 98.6887,
        "meta_ra_of_asc_node": 77.0961,
        "meta_arg_of_pericenter": 308.4739,
        "meta_mean_anomaly": 103.7478,
        "meta_ephemeris_type": 0,
        "meta_classification_type": "U",
        "meta_norad_cat_id": 29856,
        "meta_element_set_no": 999,
        "meta_rev_at_epoch": 96324,
        "meta_bstar": 0.003018,
        "meta_mean_motion_dot": 0.00017182,
        "meta_mean_motion_ddot": 0,
        "tle_line1": "1 29856U 99025FA  25343.23667443  .00017182  00000+0  30180-2 0  9999",
        "tle_line2": "2 29856  98.6887  77.0961 0262961 308.4739 103.7478 14.47603082963247"
      },
      "geometry": {
        "type": "Point",
        "coordinates": [
          67.90281453945894,
          47.94904109185349
        ]
      }
    }
  ]
}